[{"OBJECT_NAME":"ION SCV-002","OBJECT_ID":"2021-006CV","EPOCH":"2026-03-09T22:24:22.770432","MEAN_MOTION":15.41456912,"ECCENTRICITY":0.00138318,"INCLINATION":97.1152,"RA_OF_ASC_NODE":73.1802,"ARG_OF_PERICENTER":113.9229,"MEAN_ANOMALY":246.3469,"EPHEMERIS_TYPE":0,"CLASSIFICATION_TYPE":"U","NORAD_CAT_ID":47504,"ELEMENT_SET_NO":999,"REV_AT_EPOCH":28472,"BSTAR":0.00039122375,"MEAN_MOTION_DOT":0.00016364,"MEAN_MOTION_DDOT":0},{"OBJECT_NAME":"FLOCK 4BE-32","OBJECT_ID":"2024-149AF","EPOCH":"2026-03-09T19:11:59.009856","MEAN_MOTION":15.38487968,"ECCENTRICITY":0.0002762,"INCLINATION":97.376,"RA_OF_ASC_NODE":151.9037,"ARG_OF_PERICENTER":261.0637,"MEAN_ANOMALY":99.0296,"EPHEMERIS_TYPE":0,"CLASSIFICATION_TYPE":"U","NORAD_CAT_ID":60497,"ELEMENT_SET_NO":999,"REV_AT_EPOCH":8703,"BSTAR":0.00058115352,"MEAN_MOTION_DOT":0.00022026,"MEAN_MOTION_DDOT":0}]
